{
    "links": {
        "self": "http://www.neowsapp.com/rest/v1/neo/3781901?api_key=iIulBulltgU6a56xZRHN4H3l9WmuAYTsLGpBGhQ2"
    },
    "id": "3781901",
    "neo_reference_id": "3781901",
    "name": "(2017 SU16)",
    "designation": "2017 SU16",
    "nasa_jpl_url": "http://ssd.jpl.nasa.gov/sbdb.cgi?sstr=3781901",
    "absolute_magnitude_h": 26.7,
    "estimated_diameter": {
        "kilometers": {
            "estimated_diameter_min": 0.0121494041,
            "estimated_diameter_max": 0.0271668934
        },
        "meters": {
            "estimated_diameter_min": 12.14940408,
            "estimated_diameter_max": 27.1668934089
        },
        "miles": {
            "estimated_diameter_min": 0.0075492874,
            "estimated_diameter_max": 0.0168807197
        },
        "feet": {
            "estimated_diameter_min": 39.8602508817,
            "estimated_diameter_max": 89.1302305717
        }
    },
    "is_potentially_hazardous_asteroid": false,
    "close_approach_data": [
        {
            "close_approach_date": "2017-09-26",
            "close_approach_date_full": "2017-Sep-26 06:34",
            "epoch_date_close_approach": 1506407640000,
            "relative_velocity": {
                "kilometers_per_second": "10.6876446366",
                "kilometers_per_hour": "38475.5206917096",
                "miles_per_hour": "23907.1922875792"
            },
            "miss_distance": {
                "astronomical": "0.0123750872",
                "lunar": "4.8139089208",
                "kilometers": "1851286.686184264",
                "miles": "1150336.2049962832"
            },
            "orbiting_body": "Earth"
        }
    ],
    "orbital_data": {
        "orbit_id": "3",
        "orbit_determination_date": "2017-10-01 06:50:25",
        "first_observation_date": "2017-09-25",
        "last_observation_date": "2017-09-30",
        "data_arc_in_days": 5,
        "observations_used": 26,
        "orbit_uncertainty": "8",
        "minimum_orbit_intersection": ".0117492",
        "jupiter_tisserand_invariant": "3.090",
        "epoch_osculation": "2458022.5",
        "eccentricity": ".6110736108620904",
        "semi_major_axis": "2.607341386022247",
        "inclination": "12.502781534409",
        "ascending_node_longitude": "184.0842139825418",
        "orbital_period": "1537.783774217487",
        "perihelion_distance": "1.014063870515465",
        "perihelion_argument": "180.2115266592016",
        "aphelion_distance": "4.20061890152903",
        "perihelion_time": "2458023.589146601242",
        "mean_anomaly": "359.7450273679428",
        "mean_motion": ".234103133376595",
        "equinox": "J2000",
        "orbit_class": {
            "orbit_class_type": "APO",
            "orbit_class_description": "Near-Earth asteroid orbits which cross the Earth’s orbit similar to that of 1862 Apollo",
            "orbit_class_range": "a (semi-major axis) > 1.0 AU; q (perihelion) < 1.017 AU"
        }
    },
    "is_sentry_object": false
}